STARLINK-5932           
1 55943C 23037AF  26091.68312500 -.00024684  00000+0 -20687-2 0   917
2 55943  70.0016 226.3614 0003251 274.2088 207.9445 14.98340876    10
STARLINK-5926           
1 55944C 23037AG  26091.67895833  .00023905  00000+0  20045-2 0   913
2 55944  70.0016 226.3555 0003482 274.2358 207.9220 14.98294365    13
STARLINK-5925           
1 55945C 23037AH  26091.71298611  .00008895  00000+0  74543-3 0   914
2 55945  70.0018 226.3218 0003235 272.8580 346.9299 14.98326112    15
STARLINK-5857           
1 55946C 23037AJ  26091.68659722 -.00004030  00000+0 -33773-3 0   914
2 55946  70.0018 226.3865 0003293 273.0354 205.3313 14.98329719    11
STARLINK-5851           
1 55947C 23037AK  26091.73659722  .00784930  00000+0  59390-2 0   915
2 55947  70.0021 217.3133 0004327 272.0460 225.6991 15.71783717    11
STARLINK-5900           
1 55948C 23037AL  26091.71298611  .00013831  00000+0  11591-2 0   916
2 55948  70.0023 206.5173 0003134 274.5404 279.8151 14.98324337    14
STARLINK-5899           
1 55949C 23037AM  26091.65604167  .00021135  00000+0  17712-2 0   914
2 55949  70.0023 206.7115 0002955 275.0809 287.1817 14.98320214    19
STARLINK-5911           
1 55950C 23037AN  26091.73243056  .00027768  00000+0  23270-2 0   915
2 55950  70.0023 206.4429 0003339 274.0625  47.6473 14.98317064    14
STARLINK-5908           
1 55951C 23037AP  26091.71506944  .00005170  00000+0  43330-3 0   915
2 55951  70.0017 226.2131 0003254 273.2725  88.6653 14.98324572    13
STARLINK-5893           
1 55952C 23037AQ  26091.66645833  .00015708  00000+0  13164-2 0   910
2 55952  70.0023 206.6365 0003216 272.5794  29.9770 14.98321617    13
STARLINK-5892           
1 55954C 23037AS  26091.70465278  .00013411  00000+0  11240-2 0   912
2 55954  70.0027 206.3612 0003311 273.1536  33.8269 14.98320414    19
STARLINK-5878           
1 55955C 23037AT  26091.66020833  .00020367  00000+0  17067-2 0   913
2 55955  70.0024 206.5744 0003338 270.7059  66.5606 14.98322842    12
STARLINK-5883           
1 55956C 23037AU  26091.68173611  .00024325  00000+0  20386-2 0   915
2 55956  70.0025 206.3690 0002958 275.1836 313.2325 14.98318538    18
STARLINK-5884           
1 55957C 23037AV  26091.67270833  .00019978  00000+0  16742-2 0   918
2 55957  70.0024 206.5680 0003255 272.2450 109.9188 14.98320626    18
STARLINK-5928           
1 55958C 23037AW  26091.73104167  .00041971  00000+0  35167-2 0   912
2 55958  70.0026 206.3707 0003313 271.1239 110.6154 14.98315971    16
STARLINK-5929           
1 55959C 23037AX  26091.59215278 -.00027585  00000+0 -23118-2 0   913
2 55959  70.0025 206.6957 0003307 271.0995 104.2009 14.98342263    19
STARLINK-5938           
1 55960C 23037AY  26091.54145833 -.00033876  00000+0 -28386-2 0   911
2 55960  70.0023 206.8818 0003389 268.9638 124.5515 14.98351900    11
STARLINK-5933           
1 55961C 23037AZ  26091.67131944  .00013185  00000+0  11049-2 0   911
2 55961  70.0025 206.4205 0003367 271.2478 238.4849 14.98323062    18
STARLINK-5906           
1 55962C 23037BA  26091.60187500 -.00014380  00000+0 -12052-2 0   919
2 55962  70.0023 206.8170 0003356 272.2560  20.4239 14.98335292    13
STARLINK-5924           
1 55963C 23037BB  26091.65812500  .00014267  00000+0  11956-2 0   914
2 55963  70.0026 206.5043 0003525 270.3653 123.1888 14.98323258    13
STARLINK-5895           
1 55964C 23037BC  26091.70812500  .00060183  00000+0  38785-2 0   918
2 55964  69.9976 201.7483 0005828 269.9832 192.0676 15.08193542    14
STARLINK-5894           
1 55965C 23037BD  26091.53173611 -.00033634  00000+0 -28187-2 0   911
2 55965  70.0025 206.7216 0003532 269.9491 252.1080 14.98345137    17
STARLINK-5905           
1 55986C 23042A   26091.73659722  .00707450  00000+0  27748-1 0   917
2 55986  42.9992 289.5704 0001653 262.1068  66.1576 15.24596399    10
STARLINK-5915           
1 55987C 23042B   26091.72826389  .00473170  00000+0  18602-1 0   910
2 55987  42.9990 289.0772 0001738 259.2274 251.5088 15.24635435    12
STARLINK-5916           
1 55988C 23042C   26091.69909722 -.00021519  00000+0 -12578-2 0   915
2 55988  43.0000 289.8575 0000687 263.6349 188.2072 15.11133662    10
STARLINK-5947           
1 55989C 23042D   26091.68590278  .00479360  00000+0  19094-1 0   915
2 55989  42.9990 289.4702 0001728 264.2689 308.9239 15.24193726    13
STARLINK-5946           
1 55990C 23042E   26091.68104167  .00466810  00000+0  18468-1 0   915
2 55990  42.9990 289.5073 0001687 260.6577 282.3994 15.24428268    12
STARLINK-5948           
1 55991C 23042F   26091.71784722 -.00020706  00000+0 -76945-3 0   919
2 55991  43.0011 286.0260 0001448 265.5534  61.6318 15.26746056    19
STARLINK-5969           
1 55993C 23042H   26091.66854167  .00482530  00000+0  18724-1 0   910
2 55993  42.9991 289.4607 0001705 257.5396 265.5878 15.25064883    17
STARLINK-5956           
1 55994C 23042J   26091.64354167 -.00015522  00000+0 -59153-3 0   912
2 55994  42.9997 289.6428 0001372 259.1753 107.2068 15.25911166    10
STARLINK-5903           
1 55996C 23042L   26091.57826389  .00468770  00000+0  18521-1 0   913
2 55996  42.9994 289.6882 0001366 260.9045 242.4958 15.24471455    11
STARLINK-5902           
1 55998C 23042N   26091.71020833 -.00024586  00000+0 -91378-3 0   919
2 55998  42.9996 289.1220 0001772 267.0767 165.7945 15.26742093    10
STARLINK-5901           
1 55999C 23042P   26091.72201389 -.00020277  00000+0 -75351-3 0   914
2 55999  42.9998 289.3331 0001770 259.8990 120.8298 15.26745365    11
STARLINK-5910           
1 56000C 23042Q   26091.72895833 -.00013073  00000+0 -49864-3 0   917
2 56000  42.9992 289.3736 0001618 284.0960  99.5717 15.25881284    14
STARLINK-5944           
1 56001C 23042R   26091.56090278  .00021604  00000+0  12642-2 0   910
2 56001  43.0000 290.6844 0001444 265.4880 120.0065 15.11070495    18
STARLINK-5799           
1 56002C 23042S   26091.67965278  .00781160  00000+0  30087-1 0   916
2 56002  42.9990 289.6245 0001612 261.8306 222.0990 15.25164589    11
STARLINK-5789           
1 56003C 23042T   26091.69562500 -.00021111  00000+0 -80488-3 0   917
2 56003  42.9997 289.7538 0001732 244.4917 235.1289 15.25898876    12
STARLINK-5787           
1 56004C 23042U   26091.69076389 -.00021123  00000+0 -12364-2 0   913
2 56004  43.0002 289.9659 0001702 262.7745 111.0595 15.11083222    15
STARLINK-5801           
1 56005C 23042V   26091.56784722  .00015931  00000+0  93249-3 0   917
2 56005  43.0001 290.6041 0001349 251.9144 189.0450 15.11064469    16
STARLINK-5794           
1 56006C 23042W   26091.70881944 -.00039215  00000+0 -22952-2 0   913
2 56006  42.9999 289.9278 0001708 270.7430 173.9007 15.11093626    17
STARLINK-5806           
1 56007C 23042X   26091.60256944 -.00002818  00000+0 -10736-3 0   916
2 56007  42.9995 289.8234 0001480 248.8525 269.2383 15.25914084    14
STARLINK-5803           
1 56008C 23042Y   26091.68243056  .00515080  00000+0  19496-1 0   913
2 56008  42.9990 289.3941 0001677 260.6002 325.7473 15.25872956    19
STARLINK-5964           
1 56009C 23042Z   26091.70256944 -.00022571  00000+0 -13214-2 0   910
2 56009  43.0000 289.8696 0001384 261.8357 188.6628 15.11078096    13
STARLINK-5968           
1 56010C 23042AA  26091.71576389 -.00023135  00000+0 -88169-3 0   910
2 56010  42.9997 289.2477 0001704 258.7552 134.8707 15.25912518    19
STARLINK-5936           
1 56011C 23042AB  26091.67270833 -.00018454  00000+0 -66836-3 0   916
2 56011  43.0000 275.3080 0001445 251.5392  46.0229 15.27589283    12
STARLINK-5940           
1 56012C 23042AC  26091.71159722 -.00035322  00000+0 -13124-2 0   919
2 56012  42.9995 274.6687 0001637 269.9793  60.8872 15.26756914    14
STARLINK-5941           
1 56013C 23042AD  26091.73451389  .00046235  00000+0  17634-2 0   919
2 56013  42.9989 289.3048 0001670 259.8055 168.0907 15.25853898    16
STARLINK-5942           
1 56014C 23042AE  26091.72965278 -.00013576  00000+0 -50435-3 0   917
2 56014  42.9997 274.8504 0001533 281.6217  27.1492 15.26753161    10
STARLINK-5939           
1 56015C 23042AF  26091.63659722 -.00017010  00000+0 -63209-3 0   912
2 56015  42.9996 275.2076 0001447 265.1960 323.2492 15.26745169    14
STARLINK-5943           
1 56016C 23042AG  26091.69770833 -.00044919  00000+0 -16689-2 0   913
2 56016  43.0001 275.3702 0001777 266.2144  81.2752 15.26763559    16
STARLINK-5934           
1 56017C 23042AH  26091.53520833  .00009719  00000+0  36111-3 0   910
2 56017  43.0005 276.2912 0001667 264.5432 267.1802 15.26736388    14
STARLINK-5945           
1 56018C 23042AJ  26091.66645833 -.00022823  00000+0 -82680-3 0   918
2 56018  43.0000 275.7270 0001869 271.3587 189.1066 15.27582200    10
STARLINK-5949           
1 56019C 23042AK  26091.73659722 -.00015861  00000+0 -58976-3 0   914
2 56019  43.0003 275.0641 0001371 270.4889 328.7089 15.26724810    12
STARLINK-5912           
1 56020C 23042AL  26091.68451389 -.00040212  00000+0 -14941-2 0   910
2 56020  43.0001 275.3485 0001580 272.3812  43.7631 15.26760539    15
STARLINK-5907           
1 56021C 23042AM  26091.63659722 -.00042198  00000+0 -15672-2 0   914
2 56021  43.0001 275.7398 0001973 268.8424  92.7182 15.26774628    17
STARLINK-5783           
1 56022C 23042AN  26091.68520833 -.00018761  00000+0 -69710-3 0   912
2 56022  42.9996 274.8050 0001756 262.6185 284.8675 15.26747573    19
STARLINK-5771           
1 56023C 23042AP  26091.65326389 -.00027654  00000+0 -10274-2 0   911
2 56023  43.0001 275.7671 0001624 262.6445 138.5109 15.26755828    10
STARLINK-5772           
1 56024C 23042AQ  26091.68381944 -.00034971  00000+0 -12989-2 0   918
2 56024  43.0000 275.0930 0001593 253.1224 165.5549 15.26770052    10
STARLINK-5766           
1 56025C 23042AR  26091.71645833 -.00042986  00000+0 -15575-2 0   912
2 56025  42.9999 275.5544 0001250 265.5628  60.6746 15.27589426    15
